{"type": "FeatureCollection", "features": [ {"type": "Feature", "properties": {"norad_id": 40701, "name": "GAOFEN-8", "group": "resource", "lat": 82.13912039320735, "lon": 76.72312305525429, "alt_km": 433.6031412829652, "timestamp": "2025-12-25T19:00:39.005416+00:00", "meta": {"OBJECT_NAME": "GAOFEN-8", "OBJECT_ID": "2015-030A", "EPOCH": "2025-12-25T07:41:30.648768", "MEAN_MOTION": 15.3901081, "ECCENTRICITY": 0.0011506, "INCLINATION": 97.69, "RA_OF_ASC_NODE": 178.0781, "ARG_OF_PERICENTER": 94.816, "MEAN_ANOMALY": 265.4399, "EPHEMERIS_TYPE": 0, "CLASSIFICATION_TYPE": "U", "NORAD_CAT_ID": 40701, "ELEMENT_SET_NO": 999, "REV_AT_EPOCH": 58464, "BSTAR": 0.001053087, "MEAN_MOTION_DOT": 0.00040847, "MEAN_MOTION_DDOT": 0}, "tle": {"line1": "1 40701U 15030A   25359.32049362  .00040847  00000+0  10531-2 0  9998", "line2": "2 40701  97.6900 178.0781 0011506  94.8160 265.4399 15.39010810584641"}}, "geometry": {"type": "Point", "coordinates": [76.72312305525429, 82.13912039320735]}}, {"type": "Feature", "properties": {"norad_id": 40718, "name": "CARBONITE 1 (CBNT-1)", "group": "resource", "lat": -80.26750794020698, "lon": -128.23414586533715, "alt_km": 635.7039985089841, "timestamp": "2025-12-25T19:00:39.005427+00:00", "meta": {"OBJECT_NAME": "CARBONITE 1 (CBNT-1)", "OBJECT_ID": "2015-032D", "EPOCH": "2025-12-25T06:26:01.104576", "MEAN_MOTION": 14.82799261, "ECCENTRICITY": 0.00154078, "INCLINATION": 97.6405, "RA_OF_ASC_NODE": 179.7607, "ARG_OF_PERICENTER": 141.0206, "MEAN_ANOMALY": 219.2122, "EPHEMERIS_TYPE": 0, "CLASSIFICATION_TYPE": "U", "NORAD_CAT_ID": 40718, "ELEMENT_SET_NO": 999, "REV_AT_EPOCH": 56356, "BSTAR": 0.00016972565, "MEAN_MOTION_DOT": 1.325e-05, "MEAN_MOTION_DDOT": 0}, "tle": {"line1": "1 40718U 15032D   25359.26806834  .00001325  00000+0  16973-3 0  9991", "line2": "2 40718  97.6405 179.7607 0015407 141.0206 219.2122 14.82799261563564"}}, "geometry": {"type": "Point", "coordinates": [-128.23414586533715, -80.26750794020698]}}, {"type": "Feature", "properties": {"norad_id": 40878, "name": "YAOGAN-27", "group": "resource", "lat": 70.54279968075409, "lon": -41.48335364432056, "alt_km": 1198.6092480547222, "timestamp": "2025-12-25T19:00:39.005437+00:00", "meta": {"OBJECT_NAME": "YAOGAN-27", "OBJECT_ID": "2015-040A", "EPOCH": "2025-12-25T05:52:04.267776", "MEAN_MOTION": 13.16062945, "ECCENTRICITY": 0.00075536, "INCLINATION": 100.102, "RA_OF_ASC_NODE": 348.2989, "ARG_OF_PERICENTER": 255.5662, "MEAN_ANOMALY": 104.4614, "EPHEMERIS_TYPE": 0, "CLASSIFICATION_TYPE": "U", "NORAD_CAT_ID": 40878, "ELEMENT_SET_NO": 999, "REV_AT_EPOCH": 49478, "BSTAR": 0.001149905, "MEAN_MOTION_DOT": 3.94e-06, "MEAN_MOTION_DDOT": 0}, "tle": {"line1": "1 40878U 15040A   25359.24449384  .00000394  00000+0  11499-2 0  9990", "line2": "2 40878 100.1020 348.2989 0007553 255.5662 104.4614 13.16062945494786"}}, "geometry": {"type": "Point", "coordinates": [-41.48335364432056, 70.54279968075409]}}, {"type": "Feature", "properties": {"norad_id": 40894, "name": "GAOFEN-9 01", "group": "resource", "lat": -1.071875796205546, "lon": -141.96106255668758, "alt_km": 643.6883001377664, "timestamp": "2025-12-25T19:00:39.005448+00:00", "meta": {"OBJECT_NAME": "GAOFEN-9 01", "OBJECT_ID": "2015-047A", "EPOCH": "2025-12-25T06:51:25.851168", "MEAN_MOTION": 14.82452043, "ECCENTRICITY": 0.00273674, "INCLINATION": 97.6527, "RA_OF_ASC_NODE": 37.6986, "ARG_OF_PERICENTER": 353.6814, "MEAN_ANOMALY": 6.405, "EPHEMERIS_TYPE": 0, "CLASSIFICATION_TYPE": "U", "NORAD_CAT_ID": 40894, "ELEMENT_SET_NO": 999, "REV_AT_EPOCH": 55442, "BSTAR": 0.00014717592, "MEAN_MOTION_DOT": 1.136e-05, "MEAN_MOTION_DDOT": 0}, "tle": {"line1": "1 40894U 15047A   25359.28571587  .00001136  00000+0  14718-3 0  9993", "line2": "2 40894  97.6527  37.6986 0027367 353.6814   6.4050 14.82452043554425"}}, "geometry": {"type": "Point", "coordinates": [-141.96106255668758, -1.071875796205546]}}, {"type": "Feature", "properties": {"norad_id": 41026, "name": "YAOGAN-28", "group": "resource", "lat": 35.98045678882131, "lon": -37.45552177815548, "alt_km": 485.23621089082917, "timestamp": "2025-12-25T19:00:39.005458+00:00", "meta": {"OBJECT_NAME": "YAOGAN-28", "OBJECT_ID": "2015-064A", "EPOCH": "2025-12-25T07:21:27.191808", "MEAN_MOTION": 15.24549677, "ECCENTRICITY": 0.00126632, "INCLINATION": 97.2816, "RA_OF_ASC_NODE": 136.7459, "ARG_OF_PERICENTER": 86.2073, "MEAN_ANOMALY": 274.0613, "EPHEMERIS_TYPE": 0, "CLASSIFICATION_TYPE": "U", "NORAD_CAT_ID": 41026, "ELEMENT_SET_NO": 999, "REV_AT_EPOCH": 56416, "BSTAR": 0.00034401347, "MEAN_MOTION_DOT": 8.421e-05, "MEAN_MOTION_DDOT": 0}, "tle": {"line1": "1 41026U 15064A   25359.30656472  .00008421  00000+0  34401-3 0  9995", "line2": "2 41026  97.2816 136.7459 0012663  86.2073 274.0613 15.24549677564162"}}, "geometry": {"type": "Point", "coordinates": [-37.45552177815548, 35.98045678882131]}}, {"type": "Feature", "properties": {"norad_id": 41038, "name": "YAOGAN-29", "group": "resource", "lat": 81.96316201175046, "lon": -70.01239710880661, "alt_km": 612.5093902055423, "timestamp": "2025-12-25T19:00:39.005469+00:00", "meta": {"OBJECT_NAME": "YAOGAN-29", "OBJECT_ID": "2015-069A", "EPOCH": "2025-12-25T07:16:06.722976", "MEAN_MOTION": 14.82897743, "ECCENTRICITY": 9.045e-05, "INCLINATION": 98.0205, "RA_OF_ASC_NODE": 22.5139, "ARG_OF_PERICENTER": 162.4101, "MEAN_ANOMALY": 197.7144, "EPHEMERIS_TYPE": 0, "CLASSIFICATION_TYPE": "U", "NORAD_CAT_ID": 41038, "ELEMENT_SET_NO": 999, "REV_AT_EPOCH": 54485, "BSTAR": 0.0001504607, "MEAN_MOTION_DOT": 1.165e-05, "MEAN_MOTION_DDOT": 0}, "tle": {"line1": "1 41038U 15069A   25359.30285559  .00001165  00000+0  15046-3 0  9999", "line2": "2 41038  98.0205  22.5139 0000904 162.4101 197.7144 14.82897743544854"}}, "geometry": {"type": "Point", "coordinates": [-70.01239710880661, 81.96316201175046]}}, {"type": "Feature", "properties": {"norad_id": 41167, "name": "KENT RIDGE 1", "group": "resource", "lat": -9.961699206904761, "lon": -24.647443616348966, "alt_km": 499.3545000874474, "timestamp": "2025-12-25T19:00:39.005479+00:00", "meta": {"OBJECT_NAME": "KENT RIDGE 1", "OBJECT_ID": "2015-077B", "EPOCH": "2025-12-24T23:09:45.505728", "MEAN_MOTION": 15.21725755, "ECCENTRICITY": 0.0008548, "INCLINATION": 14.9791, "RA_OF_ASC_NODE": 120.4179, "ARG_OF_PERICENTER": 303.3992, "MEAN_ANOMALY": 56.5512, "EPHEMERIS_TYPE": 0, "CLASSIFICATION_TYPE": "U", "NORAD_CAT_ID": 41167, "ELEMENT_SET_NO": 999, "REV_AT_EPOCH": 55450, "BSTAR": 0.00017266, "MEAN_MOTION_DOT": 4.787e-05, "MEAN_MOTION_DDOT": 0}, "tle": {"line1": "1 41167U 15077B   25358.96511002  .00004787  00000+0  17266-3 0  9996", "line2": "2 41167  14.9791 120.4179 0008548 303.3992  56.5512 15.21725755554503"}}, "geometry": {"type": "Point", "coordinates": [-24.647443616348966, -9.961699206904761]}}, {"type": "Feature", "properties": {"norad_id": 41194, "name": "GAOFEN-4", "group": "resource", "lat": 0.15643762155936977, "lon": 125.38627595161368, "alt_km": 35778.96160576212, "timestamp": "2025-12-25T19:00:39.005491+00:00", "meta": {"OBJECT_NAME": "GAOFEN-4", "OBJECT_ID": "2015-083A", "EPOCH": "2025-12-24T23:52:24.163968", "MEAN_MOTION": 1.00270172, "ECCENTRICITY": 0.00028289, "INCLINATION": 0.1999, "RA_OF_ASC_NODE": 81.8667, "ARG_OF_PERICENTER": 93.4029, "MEAN_ANOMALY": 22.3054, "EPHEMERIS_TYPE": 0, "CLASSIFICATION_TYPE": "U", "NORAD_CAT_ID": 41194, "ELEMENT_SET_NO": 999, "REV_AT_EPOCH": 3678, "BSTAR": 0, "MEAN_MOTION_DOT": -3.14e-06, "MEAN_MOTION_DDOT": 0}, "tle": {"line1": "1 41194U 15083A   25358.99472412 -.00000314  00000+0  00000+0 0  9994", "line2": "2 41194   0.1999  81.8667 0002828  93.4029  22.3054  1.00270172 36782"}}, "geometry": {"type": "Point", "coordinates": [125.38627595161368, 0.15643762155936977]}}, {"type": "Feature", "properties": {"norad_id": 41240, "name": "JASON-3", "group": "resource", "lat": -27.88348884777269, "lon": 116.77650133195247, "alt_km": 1312.7690569623064, "timestamp": "2025-12-25T19:00:39.005503+00:00", "meta": {"OBJECT_NAME": "JASON-3", "OBJECT_ID": "2016-002A", "EPOCH": "2025-12-25T06:07:18.060096", "MEAN_MOTION": 12.87627058, "ECCENTRICITY": 0.00073001, "INCLINATION": 66.0405, "RA_OF_ASC_NODE": 131.512, "ARG_OF_PERICENTER": 271.5406, "MEAN_ANOMALY": 88.4776, "EPHEMERIS_TYPE": 0, "CLASSIFICATION_TYPE": "U", "NORAD_CAT_ID": 41240, "ELEMENT_SET_NO": 999, "REV_AT_EPOCH": 46485, "BSTAR": 0.00011870413, "MEAN_MOTION_DOT": -3.2e-07, "MEAN_MOTION_DDOT": 0}, "tle": {"line1": "1 41240U 16002A   25359.25507014 -.00000032  00000+0  11870-3 0  9993", "line2": "2 41240  66.0405 131.5120 0007300 271.5406  88.4776 12.87627058464855"}}, "geometry": {"type": "Point", "coordinates": [116.77650133195247, -27.88348884777269]}}, {"type": "Feature", "properties": {"norad_id": 41335, "name": "SENTINEL-3A", "group": "resource", "lat": 34.66984601671931, "lon": 58.59312225113414, "alt_km": 800.0316136643678, "timestamp": "2025-12-25T19:00:39.005513+00:00", "meta": {"OBJECT_NAME": "SENTINEL-3A", "OBJECT_ID": "2016-011A", "EPOCH": "2025-12-25T07:03:53.695872", "MEAN_MOTION": 14.26735423, "ECCENTRICITY": 8.832e-05, "INCLINATION": 98.6297, "RA_OF_ASC_NODE": 64.1317, "ARG_OF_PERICENTER": 97.2364, "MEAN_ANOMALY": 262.8917, "EPHEMERIS_TYPE": 0, "CLASSIFICATION_TYPE": "U", "NORAD_CAT_ID": 41335, "ELEMENT_SET_NO": 999, "REV_AT_EPOCH": 51326, "BSTAR": 7.4042691e-05, "MEAN_MOTION_DOT": 1.35e-06, "MEAN_MOTION_DDOT": 0}, "tle": {"line1": "1 41335U 16011A   25359.29437148  .00000135  00000+0  74043-4 0  9997", "line2": "2 41335  98.6297  64.1317 0000883  97.2364 262.8917 14.26735423513260"}}, "geometry": {"type": "Point", "coordinates": [58.59312225113414, 34.66984601671931]}}]}